; Generated G-code from Designer tool
; Tool diameter: 5.00mm
; Cut depth: 9.00mm
; Feed rate: 2000 mm/min
; Spindle speed: 200 RPM / Power
; Total path length: 2849.18mm
; Estimated time: 0h 1m

G90         ; Absolute positioning
G21         ; Millimeter units
G17         ; XY plane
M5          ; Laser OFF ->

; Shape ID=1, Type=Path
; Name: Path
; Operation: Profile
; Path bounds: (15.392, 23.273) to (45.392, 43.273)
; Cut depth: 3.000mm, Step down: 1.000mm
G00 Z15.00   ; Retract to safe Z
G00 X15.39 Y43.27   ; Rapid move
G01 Z9.00 F2000
G01 X45.39 Y43.27 F2000
X45.39 Y23.27
X15.39 Y23.27
X15.39 Y43.27
G00 Z15.00   ; Retract to safe Z
G00 X15.39 Y43.27   ; Rapid move
G01 Z8.00 F2000
G01 X45.39 Y43.27 F2000
X45.39 Y23.27
X15.39 Y23.27
X15.39 Y43.27
G00 Z15.00   ; Retract to safe Z
G00 X15.39 Y43.27   ; Rapid move
G01 Z7.00 F2000
G01 X45.39 Y43.27 F2000
X45.39 Y23.27
X15.39 Y23.27
X15.39 Y43.27

; Shape ID=2, Type=Rectangle
; Name: Rectangle
; Operation: Pocket
; Position: (50.500, 63.000) to (90.000, 87.500)
; Corner radius: 0.000mm
; Z depth: 5.000mm, Step down: 2.000mm, Step in: 2.000mm
; Strategy: ContourParallel
G00 Z15.00   ; Retract to safe Z
G00 X62.78 Y65.50   ; Rapid move
G01 Z8.00 F2000
G01 X62.27 Y65.51 F2000
X61.79 Y65.55
X61.32 Y65.61
X60.85 Y65.69
X60.38 Y65.79
X59.92 Y65.92
X59.47 Y66.07
X59.02 Y66.24
X58.58 Y66.44
X58.15 Y66.65
X57.74 Y66.89
X57.33 Y67.14
X56.94 Y67.42
X56.57 Y67.71
X56.20 Y68.03
X55.86 Y68.36
X55.53 Y68.70
X55.21 Y69.07
X54.92 Y69.44
X54.64 Y69.83
X54.39 Y70.24
X54.15 Y70.65
X53.94 Y71.08
X53.74 Y71.52
X53.57 Y71.97
X53.42 Y72.42
X53.29 Y72.88
X53.19 Y73.35
X53.11 Y73.82
X53.05 Y74.29
X53.01 Y74.77
X53.00 Y75.25
X53.01 Y75.73
X53.05 Y76.21
X53.11 Y76.68
X53.19 Y77.15
X53.29 Y77.62
X53.42 Y78.08
X53.57 Y78.53
X53.74 Y78.98
X53.94 Y79.42
X54.15 Y79.85
X54.39 Y80.26
X54.64 Y80.67
X54.92 Y81.06
X55.21 Y81.43
X55.53 Y81.80
X55.86 Y82.14
X56.20 Y82.47
X56.57 Y82.79
X56.94 Y83.08
X57.33 Y83.36
X57.74 Y83.61
X58.15 Y83.85
X58.58 Y84.06
X59.02 Y84.26
X59.47 Y84.43
X59.92 Y84.58
X60.38 Y84.71
X60.85 Y84.81
X61.32 Y84.89
X61.79 Y84.95
X62.24 Y84.99
X77.72 Y85.00
X78.23 Y84.99
X78.71 Y84.95
X79.18 Y84.89
X79.65 Y84.81
X80.12 Y84.71
X80.58 Y84.58
X81.03 Y84.43
X81.48 Y84.26
X81.92 Y84.06
X82.35 Y83.85
X82.76 Y83.61
X83.17 Y83.36
X83.56 Y83.08
X83.93 Y82.79
X84.30 Y82.47
X84.64 Y82.14
X84.97 Y81.80
X85.29 Y81.43
X85.58 Y81.06
X85.86 Y80.67
X86.11 Y80.26
X86.35 Y79.85
X86.56 Y79.42
X86.76 Y78.98
X86.93 Y78.53
X87.08 Y78.08
X87.21 Y77.62
X87.31 Y77.15
X87.39 Y76.68
X87.45 Y76.21
X87.49 Y75.73
X87.50 Y75.25
X87.49 Y74.77
X87.45 Y74.29
X87.39 Y73.82
X87.31 Y73.35
X87.21 Y72.88
X87.08 Y72.42
X86.93 Y71.97
X86.76 Y71.52
X86.56 Y71.08
X86.35 Y70.65
X86.11 Y70.24
X85.86 Y69.83
X85.58 Y69.44
X85.29 Y69.07
X84.97 Y68.70
X84.64 Y68.36
X84.30 Y68.03
X83.93 Y67.71
X83.56 Y67.42
X83.17 Y67.14
X82.76 Y66.89
X82.35 Y66.65
X81.92 Y66.44
X81.48 Y66.24
X81.03 Y66.07
X80.58 Y65.92
X80.12 Y65.79
X79.65 Y65.69
X79.18 Y65.61
X78.71 Y65.55
X78.23 Y65.51
X77.72 Y65.50
X62.78 Y65.50
X62.81 Y67.50
X62.37 Y67.51
X61.99 Y67.54
X61.61 Y67.59
X61.24 Y67.65
X60.87 Y67.73
X60.50 Y67.84
X60.14 Y67.95
X59.78 Y68.09
X59.44 Y68.25
X59.10 Y68.42
X58.77 Y68.60
X58.45 Y68.81
X58.13 Y69.03
X57.83 Y69.26
X57.55 Y69.51
X57.27 Y69.77
X57.01 Y70.05
X56.76 Y70.33
X56.53 Y70.63
X56.31 Y70.95
X56.10 Y71.27
X55.92 Y71.60
X55.75 Y71.94
X55.59 Y72.28
X55.45 Y72.64
X55.34 Y73.00
X55.23 Y73.37
X55.15 Y73.74
X55.09 Y74.11
X55.04 Y74.49
X55.01 Y74.87
X55.00 Y75.25
X55.01 Y75.63
X55.04 Y76.01
X55.09 Y76.39
X55.15 Y76.76
X55.23 Y77.13
X55.34 Y77.50
X55.45 Y77.86
X55.59 Y78.22
X55.75 Y78.56
X55.92 Y78.90
X56.10 Y79.23
X56.31 Y79.55
X56.53 Y79.87
X56.76 Y80.17
X57.01 Y80.45
X57.27 Y80.73
X57.55 Y80.99
X57.83 Y81.24
X58.13 Y81.47
X58.45 Y81.69
X58.77 Y81.90
X59.10 Y82.08
X59.44 Y82.25
X59.78 Y82.41
X60.14 Y82.55
X60.50 Y82.66
X60.87 Y82.77
X61.24 Y82.85
X61.61 Y82.91
X61.99 Y82.96
X62.32 Y82.99
X77.70 Y83.00
X78.13 Y82.99
X78.51 Y82.96
X78.89 Y82.91
X79.26 Y82.85
X79.63 Y82.77
X80.00 Y82.66
X80.36 Y82.55
X80.72 Y82.41
X81.06 Y82.25
X81.40 Y82.08
X81.73 Y81.90
X82.05 Y81.69
X82.37 Y81.47
X82.67 Y81.24
X82.95 Y80.99
X83.23 Y80.73
X83.49 Y80.45
X83.74 Y80.17
X83.97 Y79.87
X84.19 Y79.55
X84.40 Y79.23
X84.58 Y78.90
X84.75 Y78.56
X84.91 Y78.22
X85.05 Y77.86
X85.16 Y77.50
X85.27 Y77.13
X85.35 Y76.76
X85.41 Y76.39
X85.46 Y76.01
X85.49 Y75.63
X85.50 Y75.25
X85.49 Y74.87
X85.46 Y74.49
X85.41 Y74.11
X85.35 Y73.74
X85.27 Y73.37
X85.16 Y73.00
X85.05 Y72.64
X84.91 Y72.28
X84.75 Y71.94
X84.58 Y71.60
X84.40 Y71.27
X84.19 Y70.95
X83.97 Y70.63
X83.74 Y70.33
X83.49 Y70.05
X83.23 Y69.77
X82.95 Y69.51
X82.67 Y69.26
X82.37 Y69.03
X82.05 Y68.81
X81.73 Y68.60
X81.40 Y68.42
X81.06 Y68.25
X80.72 Y68.09
X80.36 Y67.95
X80.00 Y67.84
X79.63 Y67.73
X79.26 Y67.65
X78.89 Y67.59
X78.51 Y67.54
X78.13 Y67.51
X77.69 Y67.50
X62.81 Y67.50
X62.83 Y69.50
X62.47 Y69.51
X62.19 Y69.53
X61.91 Y69.56
X61.63 Y69.61
X61.35 Y69.67
X61.08 Y69.75
X60.81 Y69.84
X60.55 Y69.94
X60.29 Y70.05
X60.04 Y70.18
X59.79 Y70.32
X59.56 Y70.47
X59.33 Y70.63
X59.10 Y70.81
X58.89 Y70.99
X58.69 Y71.19
X58.49 Y71.39
X58.31 Y71.60
X58.13 Y71.83
X57.97 Y72.06
X57.82 Y72.29
X57.68 Y72.54
X57.55 Y72.79
X57.44 Y73.05
X57.34 Y73.31
X57.25 Y73.58
X57.17 Y73.85
X57.11 Y74.13
X57.06 Y74.41
X57.03 Y74.69
X57.01 Y74.97
X57.00 Y75.25
X57.01 Y75.53
X57.03 Y75.81
X57.06 Y76.09
X57.11 Y76.37
X57.17 Y76.65
X57.25 Y76.92
X57.34 Y77.19
X57.44 Y77.45
X57.55 Y77.71
X57.68 Y77.96
X57.82 Y78.21
X57.97 Y78.44
X58.13 Y78.67
X58.31 Y78.90
X58.49 Y79.11
X58.69 Y79.31
X58.89 Y79.51
X59.10 Y79.69
X59.33 Y79.87
X59.56 Y80.03
X59.79 Y80.18
X60.04 Y80.32
X60.29 Y80.45
X60.55 Y80.56
X60.81 Y80.66
X61.08 Y80.75
X61.35 Y80.83
X61.63 Y80.89
X61.91 Y80.94
X62.19 Y80.97
X62.39 Y80.99
X77.67 Y81.00
X78.03 Y80.99
X78.31 Y80.97
X78.59 Y80.94
X78.87 Y80.89
X79.15 Y80.83
X79.42 Y80.75
X79.69 Y80.66
X79.95 Y80.56
X80.21 Y80.45
X80.46 Y80.32
X80.71 Y80.18
X80.94 Y80.03
X81.17 Y79.87
X81.40 Y79.69
X81.61 Y79.51
X81.81 Y79.31
X82.01 Y79.11
X82.19 Y78.90
X82.37 Y78.67
X82.53 Y78.44
X82.68 Y78.21
X82.82 Y77.96
X82.95 Y77.71
X83.06 Y77.45
X83.16 Y77.19
X83.25 Y76.92
X83.33 Y76.65
X83.39 Y76.37
X83.44 Y76.09
X83.47 Y75.81
X83.49 Y75.53
X83.50 Y75.25
X83.49 Y74.97
X83.47 Y74.69
X83.44 Y74.41
X83.39 Y74.13
X83.33 Y73.85
X83.25 Y73.58
X83.16 Y73.31
X83.06 Y73.05
X82.95 Y72.79
X82.82 Y72.54
X82.68 Y72.29
X82.53 Y72.06
X82.37 Y71.83
X82.19 Y71.60
X82.01 Y71.39
X81.81 Y71.19
X81.61 Y70.99
X81.40 Y70.81
X81.17 Y70.63
X80.94 Y70.47
X80.71 Y70.32
X80.46 Y70.18
X80.21 Y70.05
X79.95 Y69.94
X79.69 Y69.84
X79.42 Y69.75
X79.15 Y69.67
X78.87 Y69.61
X78.59 Y69.56
X78.31 Y69.53
X78.03 Y69.51
X77.67 Y69.50
X62.83 Y69.50
X62.85 Y71.50
X62.57 Y71.51
X62.38 Y71.52
X62.20 Y71.54
X62.02 Y71.57
X61.84 Y71.61
X61.66 Y71.66
X61.49 Y71.72
X61.32 Y71.79
X61.15 Y71.86
X60.98 Y71.95
X60.82 Y72.04
X60.67 Y72.13
X60.52 Y72.24
X60.37 Y72.35
X60.23 Y72.47
X60.10 Y72.60
X59.97 Y72.73
X59.85 Y72.87
X59.74 Y73.02
X59.63 Y73.17
X59.54 Y73.32
X59.45 Y73.48
X59.36 Y73.65
X59.29 Y73.82
X59.22 Y73.99
X59.16 Y74.16
X59.11 Y74.34
X59.07 Y74.52
X59.04 Y74.70
X59.02 Y74.88
X59.01 Y75.07
X59.00 Y75.25
X59.01 Y75.43
X59.02 Y75.62
X59.04 Y75.80
X59.07 Y75.98
X59.11 Y76.16
X59.16 Y76.34
X59.22 Y76.51
X59.29 Y76.68
X59.36 Y76.85
X59.45 Y77.02
X59.54 Y77.18
X59.63 Y77.33
X59.74 Y77.48
X59.85 Y77.63
X59.97 Y77.77
X60.10 Y77.90
X60.23 Y78.03
X60.37 Y78.15
X60.52 Y78.26
X60.67 Y78.37
X60.82 Y78.46
X60.98 Y78.55
X61.15 Y78.64
X61.32 Y78.71
X61.49 Y78.78
X61.66 Y78.84
X61.84 Y78.89
X62.02 Y78.93
X62.20 Y78.96
X62.38 Y78.98
X62.47 Y78.99
X77.65 Y79.00
X77.93 Y78.99
X78.12 Y78.98
X78.30 Y78.96
X78.48 Y78.93
X78.66 Y78.89
X78.84 Y78.84
X79.01 Y78.78
X79.18 Y78.71
X79.35 Y78.64
X79.52 Y78.55
X79.68 Y78.46
X79.83 Y78.37
X79.98 Y78.26
X80.13 Y78.15
X80.27 Y78.03
X80.40 Y77.90
X80.53 Y77.77
X80.65 Y77.63
X80.76 Y77.48
X80.87 Y77.33
X80.96 Y77.18
X81.05 Y77.02
X81.14 Y76.85
X81.21 Y76.68
X81.28 Y76.51
X81.34 Y76.34
X81.39 Y76.16
X81.43 Y75.98
X81.46 Y75.80
X81.48 Y75.62
X81.49 Y75.43
X81.50 Y75.25
X81.49 Y75.07
X81.48 Y74.88
X81.46 Y74.70
X81.43 Y74.52
X81.39 Y74.34
X81.34 Y74.16
X81.28 Y73.99
X81.21 Y73.82
X81.14 Y73.65
X81.05 Y73.48
X80.96 Y73.32
X80.87 Y73.17
X80.76 Y73.02
X80.65 Y72.87
X80.53 Y72.73
X80.40 Y72.60
X80.27 Y72.47
X80.13 Y72.35
X79.98 Y72.24
X79.83 Y72.13
X79.68 Y72.04
X79.52 Y71.95
X79.35 Y71.86
X79.18 Y71.79
X79.01 Y71.72
X78.84 Y71.66
X78.66 Y71.61
X78.48 Y71.57
X78.30 Y71.54
X78.12 Y71.52
X77.93 Y71.51
X77.65 Y71.50
X62.85 Y71.50
X62.56 Y76.99
X77.63 Y77.00
X77.84 Y76.99
X77.92 Y76.99
X78.01 Y76.98
X78.09 Y76.96
X78.17 Y76.94
X78.26 Y76.92
X78.34 Y76.89
X78.42 Y76.86
X78.50 Y76.83
X78.57 Y76.79
X78.65 Y76.75
X78.72 Y76.70
X78.79 Y76.65
X78.86 Y76.60
X78.92 Y76.54
X78.99 Y76.49
X79.04 Y76.42
X79.10 Y76.36
X79.15 Y76.29
X79.20 Y76.22
X79.25 Y76.15
X79.29 Y76.07
X79.33 Y76.00
X79.36 Y75.92
X79.39 Y75.84
X79.42 Y75.76
X79.44 Y75.67
X79.46 Y75.59
X79.48 Y75.51
X79.49 Y75.42
X79.49 Y75.34
X79.50 Y75.25
X79.49 Y75.16
X79.49 Y75.08
X79.48 Y74.99
X79.46 Y74.91
X79.44 Y74.83
X79.42 Y74.74
X79.39 Y74.66
X79.36 Y74.58
X79.33 Y74.50
X79.29 Y74.43
X79.25 Y74.35
X79.20 Y74.28
X79.15 Y74.21
X79.10 Y74.14
X79.04 Y74.08
X78.99 Y74.01
X78.92 Y73.96
X78.86 Y73.90
X78.79 Y73.85
X78.72 Y73.80
X78.65 Y73.75
X78.57 Y73.71
X78.50 Y73.67
X78.42 Y73.64
X78.34 Y73.61
X78.26 Y73.58
X78.17 Y73.56
X78.09 Y73.54
X78.01 Y73.52
X77.92 Y73.51
X77.84 Y73.51
X77.62 Y73.50
X62.88 Y73.50
X62.66 Y73.51
X62.58 Y73.51
X62.49 Y73.52
X62.41 Y73.54
X62.33 Y73.56
X62.24 Y73.58
X62.16 Y73.61
X62.08 Y73.64
X62.00 Y73.67
X61.93 Y73.71
X61.85 Y73.75
X61.78 Y73.80
X61.71 Y73.85
X61.64 Y73.90
X61.58 Y73.96
X61.51 Y74.01
X61.46 Y74.08
X61.40 Y74.14
X61.35 Y74.21
X61.30 Y74.28
X61.25 Y74.35
X61.21 Y74.43
X61.17 Y74.50
X61.14 Y74.58
X61.11 Y74.66
X61.08 Y74.74
X61.06 Y74.83
X61.04 Y74.91
X61.02 Y74.99
X61.01 Y75.08
X61.01 Y75.16
X61.00 Y75.25
X61.01 Y75.34
X61.01 Y75.42
X61.02 Y75.51
X61.04 Y75.59
X61.06 Y75.67
X61.08 Y75.76
X61.11 Y75.84
X61.14 Y75.92
X61.17 Y76.00
X61.21 Y76.07
X61.25 Y76.15
X61.30 Y76.22
X61.35 Y76.29
X61.40 Y76.36
X61.46 Y76.42
X61.51 Y76.49
X61.58 Y76.54
X61.64 Y76.60
X61.71 Y76.65
X61.78 Y76.70
X61.85 Y76.75
X61.93 Y76.79
X62.00 Y76.83
X62.08 Y76.86
X62.16 Y76.89
X62.24 Y76.92
X62.33 Y76.94
X62.41 Y76.96
X62.49 Y76.98
X62.56 Y76.99
G00 Z15.00   ; Retract to safe Z
G00 X72.75 Y75.25   ; Rapid move
G01 Z8.00 F2000
G01 X70.25 Y75.25
X67.75 Y75.25
X70.25 Y75.25
X70.25 Y77.75
X70.25 Y72.75
X72.75 Y75.25
X72.75 Y75.25
G03 X70.25 Y77.75 I-2.50 J0.00
G03 X67.75 Y75.25 I0.00 J-2.50
G03 X70.25 Y72.75 I2.50 J0.00
G03 X72.75 Y75.25 I0.00 J2.50
G01 Z6.00 F2000
G01 X62.78 Y65.50 F2000
X62.27 Y65.51
X61.79 Y65.55
X61.32 Y65.61
X60.85 Y65.69
X60.38 Y65.79
X59.92 Y65.92
X59.47 Y66.07
X59.02 Y66.24
X58.58 Y66.44
X58.15 Y66.65
X57.74 Y66.89
X57.33 Y67.14
X56.94 Y67.42
X56.57 Y67.71
X56.20 Y68.03
X55.86 Y68.36
X55.53 Y68.70
X55.21 Y69.07
X54.92 Y69.44
X54.64 Y69.83
X54.39 Y70.24
X54.15 Y70.65
X53.94 Y71.08
X53.74 Y71.52
X53.57 Y71.97
X53.42 Y72.42
X53.29 Y72.88
X53.19 Y73.35
X53.11 Y73.82
X53.05 Y74.29
X53.01 Y74.77
X53.00 Y75.25
X53.01 Y75.73
X53.05 Y76.21
X53.11 Y76.68
X53.19 Y77.15
X53.29 Y77.62
X53.42 Y78.08
X53.57 Y78.53
X53.74 Y78.98
X53.94 Y79.42
X54.15 Y79.85
X54.39 Y80.26
X54.64 Y80.67
X54.92 Y81.06
X55.21 Y81.43
X55.53 Y81.80
X55.86 Y82.14
X56.20 Y82.47
X56.57 Y82.79
X56.94 Y83.08
X57.33 Y83.36
X57.74 Y83.61
X58.15 Y83.85
X58.58 Y84.06
X59.02 Y84.26
X59.47 Y84.43
X59.92 Y84.58
X60.38 Y84.71
X60.85 Y84.81
X61.32 Y84.89
X61.79 Y84.95
X62.24 Y84.99
X77.72 Y85.00
X78.23 Y84.99
X78.71 Y84.95
X79.18 Y84.89
X79.65 Y84.81
X80.12 Y84.71
X80.58 Y84.58
X81.03 Y84.43
X81.48 Y84.26
X81.92 Y84.06
X82.35 Y83.85
X82.76 Y83.61
X83.17 Y83.36
X83.56 Y83.08
X83.93 Y82.79
X84.30 Y82.47
X84.64 Y82.14
X84.97 Y81.80
X85.29 Y81.43
X85.58 Y81.06
X85.86 Y80.67
X86.11 Y80.26
X86.35 Y79.85
X86.56 Y79.42
X86.76 Y78.98
X86.93 Y78.53
X87.08 Y78.08
X87.21 Y77.62
X87.31 Y77.15
X87.39 Y76.68
X87.45 Y76.21
X87.49 Y75.73
X87.50 Y75.25
X87.49 Y74.77
X87.45 Y74.29
X87.39 Y73.82
X87.31 Y73.35
X87.21 Y72.88
X87.08 Y72.42
X86.93 Y71.97
X86.76 Y71.52
X86.56 Y71.08
X86.35 Y70.65
X86.11 Y70.24
X85.86 Y69.83
X85.58 Y69.44
X85.29 Y69.07
X84.97 Y68.70
X84.64 Y68.36
X84.30 Y68.03
X83.93 Y67.71
X83.56 Y67.42
X83.17 Y67.14
X82.76 Y66.89
X82.35 Y66.65
X81.92 Y66.44
X81.48 Y66.24
X81.03 Y66.07
X80.58 Y65.92
X80.12 Y65.79
X79.65 Y65.69
X79.18 Y65.61
X78.71 Y65.55
X78.23 Y65.51
X77.72 Y65.50
X62.78 Y65.50
X62.81 Y67.50
X62.37 Y67.51
X61.99 Y67.54
X61.61 Y67.59
X61.24 Y67.65
X60.87 Y67.73
X60.50 Y67.84
X60.14 Y67.95
X59.78 Y68.09
X59.44 Y68.25
X59.10 Y68.42
X58.77 Y68.60
X58.45 Y68.81
X58.13 Y69.03
X57.83 Y69.26
X57.55 Y69.51
X57.27 Y69.77
X57.01 Y70.05
X56.76 Y70.33
X56.53 Y70.63
X56.31 Y70.95
X56.10 Y71.27
X55.92 Y71.60
X55.75 Y71.94
X55.59 Y72.28
X55.45 Y72.64
X55.34 Y73.00
X55.23 Y73.37
X55.15 Y73.74
X55.09 Y74.11
X55.04 Y74.49
X55.01 Y74.87
X55.00 Y75.25
X55.01 Y75.63
X55.04 Y76.01
X55.09 Y76.39
X55.15 Y76.76
X55.23 Y77.13
X55.34 Y77.50
X55.45 Y77.86
X55.59 Y78.22
X55.75 Y78.56
X55.92 Y78.90
X56.10 Y79.23
X56.31 Y79.55
X56.53 Y79.87
X56.76 Y80.17
X57.01 Y80.45
X57.27 Y80.73
X57.55 Y80.99
X57.83 Y81.24
X58.13 Y81.47
X58.45 Y81.69
X58.77 Y81.90
X59.10 Y82.08
X59.44 Y82.25
X59.78 Y82.41
X60.14 Y82.55
X60.50 Y82.66
X60.87 Y82.77
X61.24 Y82.85
X61.61 Y82.91
X61.99 Y82.96
X62.32 Y82.99
X77.70 Y83.00
X78.13 Y82.99
X78.51 Y82.96
X78.89 Y82.91
X79.26 Y82.85
X79.63 Y82.77
X80.00 Y82.66
X80.36 Y82.55
X80.72 Y82.41
X81.06 Y82.25
X81.40 Y82.08
X81.73 Y81.90
X82.05 Y81.69
X82.37 Y81.47
X82.67 Y81.24
X82.95 Y80.99
X83.23 Y80.73
X83.49 Y80.45
X83.74 Y80.17
X83.97 Y79.87
X84.19 Y79.55
X84.40 Y79.23
X84.58 Y78.90
X84.75 Y78.56
X84.91 Y78.22
X85.05 Y77.86
X85.16 Y77.50
X85.27 Y77.13
X85.35 Y76.76
X85.41 Y76.39
X85.46 Y76.01
X85.49 Y75.63
X85.50 Y75.25
X85.49 Y74.87
X85.46 Y74.49
X85.41 Y74.11
X85.35 Y73.74
X85.27 Y73.37
X85.16 Y73.00
X85.05 Y72.64
X84.91 Y72.28
X84.75 Y71.94
X84.58 Y71.60
X84.40 Y71.27
X84.19 Y70.95
X83.97 Y70.63
X83.74 Y70.33
X83.49 Y70.05
X83.23 Y69.77
X82.95 Y69.51
X82.67 Y69.26
X82.37 Y69.03
X82.05 Y68.81
X81.73 Y68.60
X81.40 Y68.42
X81.06 Y68.25
X80.72 Y68.09
X80.36 Y67.95
X80.00 Y67.84
X79.63 Y67.73
X79.26 Y67.65
X78.89 Y67.59
X78.51 Y67.54
X78.13 Y67.51
X77.69 Y67.50
X62.81 Y67.50
X62.83 Y69.50
X62.47 Y69.51
X62.19 Y69.53
X61.91 Y69.56
X61.63 Y69.61
X61.35 Y69.67
X61.08 Y69.75
X60.81 Y69.84
X60.55 Y69.94
X60.29 Y70.05
X60.04 Y70.18
X59.79 Y70.32
X59.56 Y70.47
X59.33 Y70.63
X59.10 Y70.81
X58.89 Y70.99
X58.69 Y71.19
X58.49 Y71.39
X58.31 Y71.60
X58.13 Y71.83
X57.97 Y72.06
X57.82 Y72.29
X57.68 Y72.54
X57.55 Y72.79
X57.44 Y73.05
X57.34 Y73.31
X57.25 Y73.58
X57.17 Y73.85
X57.11 Y74.13
X57.06 Y74.41
X57.03 Y74.69
X57.01 Y74.97
X57.00 Y75.25
X57.01 Y75.53
X57.03 Y75.81
X57.06 Y76.09
X57.11 Y76.37
X57.17 Y76.65
X57.25 Y76.92
X57.34 Y77.19
X57.44 Y77.45
X57.55 Y77.71
X57.68 Y77.96
X57.82 Y78.21
X57.97 Y78.44
X58.13 Y78.67
X58.31 Y78.90
X58.49 Y79.11
X58.69 Y79.31
X58.89 Y79.51
X59.10 Y79.69
X59.33 Y79.87
X59.56 Y80.03
X59.79 Y80.18
X60.04 Y80.32
X60.29 Y80.45
X60.55 Y80.56
X60.81 Y80.66
X61.08 Y80.75
X61.35 Y80.83
X61.63 Y80.89
X61.91 Y80.94
X62.19 Y80.97
X62.39 Y80.99
X77.67 Y81.00
X78.03 Y80.99
X78.31 Y80.97
X78.59 Y80.94
X78.87 Y80.89
X79.15 Y80.83
X79.42 Y80.75
X79.69 Y80.66
X79.95 Y80.56
X80.21 Y80.45
X80.46 Y80.32
X80.71 Y80.18
X80.94 Y80.03
X81.17 Y79.87
X81.40 Y79.69
X81.61 Y79.51
X81.81 Y79.31
X82.01 Y79.11
X82.19 Y78.90
X82.37 Y78.67
X82.53 Y78.44
X82.68 Y78.21
X82.82 Y77.96
X82.95 Y77.71
X83.06 Y77.45
X83.16 Y77.19
X83.25 Y76.92
X83.33 Y76.65
X83.39 Y76.37
X83.44 Y76.09
X83.47 Y75.81
X83.49 Y75.53
X83.50 Y75.25
X83.49 Y74.97
X83.47 Y74.69
X83.44 Y74.41
X83.39 Y74.13
X83.33 Y73.85
X83.25 Y73.58
X83.16 Y73.31
X83.06 Y73.05
X82.95 Y72.79
X82.82 Y72.54
X82.68 Y72.29
X82.53 Y72.06
X82.37 Y71.83
X82.19 Y71.60
X82.01 Y71.39
X81.81 Y71.19
X81.61 Y70.99
X81.40 Y70.81
X81.17 Y70.63
X80.94 Y70.47
X80.71 Y70.32
X80.46 Y70.18
X80.21 Y70.05
X79.95 Y69.94
X79.69 Y69.84
X79.42 Y69.75
X79.15 Y69.67
X78.87 Y69.61
X78.59 Y69.56
X78.31 Y69.53
X78.03 Y69.51
X77.67 Y69.50
X62.83 Y69.50
X62.85 Y71.50
X62.57 Y71.51
X62.38 Y71.52
X62.20 Y71.54
X62.02 Y71.57
X61.84 Y71.61
X61.66 Y71.66
X61.49 Y71.72
X61.32 Y71.79
X61.15 Y71.86
X60.98 Y71.95
X60.82 Y72.04
X60.67 Y72.13
X60.52 Y72.24
X60.37 Y72.35
X60.23 Y72.47
X60.10 Y72.60
X59.97 Y72.73
X59.85 Y72.87
X59.74 Y73.02
X59.63 Y73.17
X59.54 Y73.32
X59.45 Y73.48
X59.36 Y73.65
X59.29 Y73.82
X59.22 Y73.99
X59.16 Y74.16
X59.11 Y74.34
X59.07 Y74.52
X59.04 Y74.70
X59.02 Y74.88
X59.01 Y75.07
X59.00 Y75.25
X59.01 Y75.43
X59.02 Y75.62
X59.04 Y75.80
X59.07 Y75.98
X59.11 Y76.16
X59.16 Y76.34
X59.22 Y76.51
X59.29 Y76.68
X59.36 Y76.85
X59.45 Y77.02
X59.54 Y77.18
X59.63 Y77.33
X59.74 Y77.48
X59.85 Y77.63
X59.97 Y77.77
X60.10 Y77.90
X60.23 Y78.03
X60.37 Y78.15
X60.52 Y78.26
X60.67 Y78.37
X60.82 Y78.46
X60.98 Y78.55
X61.15 Y78.64
X61.32 Y78.71
X61.49 Y78.78
X61.66 Y78.84
X61.84 Y78.89
X62.02 Y78.93
X62.20 Y78.96
X62.38 Y78.98
X62.47 Y78.99
X77.65 Y79.00
X77.93 Y78.99
X78.12 Y78.98
X78.30 Y78.96
X78.48 Y78.93
X78.66 Y78.89
X78.84 Y78.84
X79.01 Y78.78
X79.18 Y78.71
X79.35 Y78.64
X79.52 Y78.55
X79.68 Y78.46
X79.83 Y78.37
X79.98 Y78.26
X80.13 Y78.15
X80.27 Y78.03
X80.40 Y77.90
X80.53 Y77.77
X80.65 Y77.63
X80.76 Y77.48
X80.87 Y77.33
X80.96 Y77.18
X81.05 Y77.02
X81.14 Y76.85
X81.21 Y76.68
X81.28 Y76.51
X81.34 Y76.34
X81.39 Y76.16
X81.43 Y75.98
X81.46 Y75.80
X81.48 Y75.62
X81.49 Y75.43
X81.50 Y75.25
X81.49 Y75.07
X81.48 Y74.88
X81.46 Y74.70
X81.43 Y74.52
X81.39 Y74.34
X81.34 Y74.16
X81.28 Y73.99
X81.21 Y73.82
X81.14 Y73.65
X81.05 Y73.48
X80.96 Y73.32
X80.87 Y73.17
X80.76 Y73.02
X80.65 Y72.87
X80.53 Y72.73
X80.40 Y72.60
X80.27 Y72.47
X80.13 Y72.35
X79.98 Y72.24
X79.83 Y72.13
X79.68 Y72.04
X79.52 Y71.95
X79.35 Y71.86
X79.18 Y71.79
X79.01 Y71.72
X78.84 Y71.66
X78.66 Y71.61
X78.48 Y71.57
X78.30 Y71.54
X78.12 Y71.52
X77.93 Y71.51
X77.65 Y71.50
X62.85 Y71.50
X62.56 Y76.99
X77.63 Y77.00
X77.84 Y76.99
X77.92 Y76.99
X78.01 Y76.98
X78.09 Y76.96
X78.17 Y76.94
X78.26 Y76.92
X78.34 Y76.89
X78.42 Y76.86
X78.50 Y76.83
X78.57 Y76.79
X78.65 Y76.75
X78.72 Y76.70
X78.79 Y76.65
X78.86 Y76.60
X78.92 Y76.54
X78.99 Y76.49
X79.04 Y76.42
X79.10 Y76.36
X79.15 Y76.29
X79.20 Y76.22
X79.25 Y76.15
X79.29 Y76.07
X79.33 Y76.00
X79.36 Y75.92
X79.39 Y75.84
X79.42 Y75.76
X79.44 Y75.67
X79.46 Y75.59
X79.48 Y75.51
X79.49 Y75.42
X79.49 Y75.34
X79.50 Y75.25
X79.49 Y75.16
X79.49 Y75.08
X79.48 Y74.99
X79.46 Y74.91
X79.44 Y74.83
X79.42 Y74.74
X79.39 Y74.66
X79.36 Y74.58
X79.33 Y74.50
X79.29 Y74.43
X79.25 Y74.35
X79.20 Y74.28
X79.15 Y74.21
X79.10 Y74.14
X79.04 Y74.08
X78.99 Y74.01
X78.92 Y73.96
X78.86 Y73.90
X78.79 Y73.85
X78.72 Y73.80
X78.65 Y73.75
X78.57 Y73.71
X78.50 Y73.67
X78.42 Y73.64
X78.34 Y73.61
X78.26 Y73.58
X78.17 Y73.56
X78.09 Y73.54
X78.01 Y73.52
X77.92 Y73.51
X77.84 Y73.51
X77.62 Y73.50
X62.88 Y73.50
X62.66 Y73.51
X62.58 Y73.51
X62.49 Y73.52
X62.41 Y73.54
X62.33 Y73.56
X62.24 Y73.58
X62.16 Y73.61
X62.08 Y73.64
X62.00 Y73.67
X61.93 Y73.71
X61.85 Y73.75
X61.78 Y73.80
X61.71 Y73.85
X61.64 Y73.90
X61.58 Y73.96
X61.51 Y74.01
X61.46 Y74.08
X61.40 Y74.14
X61.35 Y74.21
X61.30 Y74.28
X61.25 Y74.35
X61.21 Y74.43
X61.17 Y74.50
X61.14 Y74.58
X61.11 Y74.66
X61.08 Y74.74
X61.06 Y74.83
X61.04 Y74.91
X61.02 Y74.99
X61.01 Y75.08
X61.01 Y75.16
X61.00 Y75.25
X61.01 Y75.34
X61.01 Y75.42
X61.02 Y75.51
X61.04 Y75.59
X61.06 Y75.67
X61.08 Y75.76
X61.11 Y75.84
X61.14 Y75.92
X61.17 Y76.00
X61.21 Y76.07
X61.25 Y76.15
X61.30 Y76.22
X61.35 Y76.29
X61.40 Y76.36
X61.46 Y76.42
X61.51 Y76.49
X61.58 Y76.54
X61.64 Y76.60
X61.71 Y76.65
X61.78 Y76.70
X61.85 Y76.75
X61.93 Y76.79
X62.00 Y76.83
X62.08 Y76.86
X62.16 Y76.89
X62.24 Y76.92
X62.33 Y76.94
X62.41 Y76.96
X62.49 Y76.98
X62.56 Y76.99
G00 Z15.00   ; Retract to safe Z
G00 X72.75 Y75.25   ; Rapid move
G01 Z6.00 F2000
G01 X70.25 Y75.25
X67.75 Y75.25
X70.25 Y75.25
X70.25 Y77.75
X70.25 Y72.75
X72.75 Y75.25
X72.75 Y75.25
G03 X70.25 Y77.75 I-2.50 J0.00
G03 X67.75 Y75.25 I0.00 J-2.50
G03 X70.25 Y72.75 I2.50 J0.00
G03 X72.75 Y75.25 I0.00 J2.50
G01 Z5.00 F2000
G01 X62.78 Y65.50 F2000
X62.27 Y65.51
X61.79 Y65.55
X61.32 Y65.61
X60.85 Y65.69
X60.38 Y65.79
X59.92 Y65.92
X59.47 Y66.07
X59.02 Y66.24
X58.58 Y66.44
X58.15 Y66.65
X57.74 Y66.89
X57.33 Y67.14
X56.94 Y67.42
X56.57 Y67.71
X56.20 Y68.03
X55.86 Y68.36
X55.53 Y68.70
X55.21 Y69.07
X54.92 Y69.44
X54.64 Y69.83
X54.39 Y70.24
X54.15 Y70.65
X53.94 Y71.08
X53.74 Y71.52
X53.57 Y71.97
X53.42 Y72.42
X53.29 Y72.88
X53.19 Y73.35
X53.11 Y73.82
X53.05 Y74.29
X53.01 Y74.77
X53.00 Y75.25
X53.01 Y75.73
X53.05 Y76.21
X53.11 Y76.68
X53.19 Y77.15
X53.29 Y77.62
X53.42 Y78.08
X53.57 Y78.53
X53.74 Y78.98
X53.94 Y79.42
X54.15 Y79.85
X54.39 Y80.26
X54.64 Y80.67
X54.92 Y81.06
X55.21 Y81.43
X55.53 Y81.80
X55.86 Y82.14
X56.20 Y82.47
X56.57 Y82.79
X56.94 Y83.08
X57.33 Y83.36
X57.74 Y83.61
X58.15 Y83.85
X58.58 Y84.06
X59.02 Y84.26
X59.47 Y84.43
X59.92 Y84.58
X60.38 Y84.71
X60.85 Y84.81
X61.32 Y84.89
X61.79 Y84.95
X62.24 Y84.99
X77.72 Y85.00
X78.23 Y84.99
X78.71 Y84.95
X79.18 Y84.89
X79.65 Y84.81
X80.12 Y84.71
X80.58 Y84.58
X81.03 Y84.43
X81.48 Y84.26
X81.92 Y84.06
X82.35 Y83.85
X82.76 Y83.61
X83.17 Y83.36
X83.56 Y83.08
X83.93 Y82.79
X84.30 Y82.47
X84.64 Y82.14
X84.97 Y81.80
X85.29 Y81.43
X85.58 Y81.06
X85.86 Y80.67
X86.11 Y80.26
X86.35 Y79.85
X86.56 Y79.42
X86.76 Y78.98
X86.93 Y78.53
X87.08 Y78.08
X87.21 Y77.62
X87.31 Y77.15
X87.39 Y76.68
X87.45 Y76.21
X87.49 Y75.73
X87.50 Y75.25
X87.49 Y74.77
X87.45 Y74.29
X87.39 Y73.82
X87.31 Y73.35
X87.21 Y72.88
X87.08 Y72.42
X86.93 Y71.97
X86.76 Y71.52
X86.56 Y71.08
X86.35 Y70.65
X86.11 Y70.24
X85.86 Y69.83
X85.58 Y69.44
X85.29 Y69.07
X84.97 Y68.70
X84.64 Y68.36
X84.30 Y68.03
X83.93 Y67.71
X83.56 Y67.42
X83.17 Y67.14
X82.76 Y66.89
X82.35 Y66.65
X81.92 Y66.44
X81.48 Y66.24
X81.03 Y66.07
X80.58 Y65.92
X80.12 Y65.79
X79.65 Y65.69
X79.18 Y65.61
X78.71 Y65.55
X78.23 Y65.51
X77.72 Y65.50
X62.78 Y65.50
X62.81 Y67.50
X62.37 Y67.51
X61.99 Y67.54
X61.61 Y67.59
X61.24 Y67.65
X60.87 Y67.73
X60.50 Y67.84
X60.14 Y67.95
X59.78 Y68.09
X59.44 Y68.25
X59.10 Y68.42
X58.77 Y68.60
X58.45 Y68.81
X58.13 Y69.03
X57.83 Y69.26
X57.55 Y69.51
X57.27 Y69.77
X57.01 Y70.05
X56.76 Y70.33
X56.53 Y70.63
X56.31 Y70.95
X56.10 Y71.27
X55.92 Y71.60
X55.75 Y71.94
X55.59 Y72.28
X55.45 Y72.64
X55.34 Y73.00
X55.23 Y73.37
X55.15 Y73.74
X55.09 Y74.11
X55.04 Y74.49
X55.01 Y74.87
X55.00 Y75.25
X55.01 Y75.63
X55.04 Y76.01
X55.09 Y76.39
X55.15 Y76.76
X55.23 Y77.13
X55.34 Y77.50
X55.45 Y77.86
X55.59 Y78.22
X55.75 Y78.56
X55.92 Y78.90
X56.10 Y79.23
X56.31 Y79.55
X56.53 Y79.87
X56.76 Y80.17
X57.01 Y80.45
X57.27 Y80.73
X57.55 Y80.99
X57.83 Y81.24
X58.13 Y81.47
X58.45 Y81.69
X58.77 Y81.90
X59.10 Y82.08
X59.44 Y82.25
X59.78 Y82.41
X60.14 Y82.55
X60.50 Y82.66
X60.87 Y82.77
X61.24 Y82.85
X61.61 Y82.91
X61.99 Y82.96
X62.32 Y82.99
X77.70 Y83.00
X78.13 Y82.99
X78.51 Y82.96
X78.89 Y82.91
X79.26 Y82.85
X79.63 Y82.77
X80.00 Y82.66
X80.36 Y82.55
X80.72 Y82.41
X81.06 Y82.25
X81.40 Y82.08
X81.73 Y81.90
X82.05 Y81.69
X82.37 Y81.47
X82.67 Y81.24
X82.95 Y80.99
X83.23 Y80.73
X83.49 Y80.45
X83.74 Y80.17
X83.97 Y79.87
X84.19 Y79.55
X84.40 Y79.23
X84.58 Y78.90
X84.75 Y78.56
X84.91 Y78.22
X85.05 Y77.86
X85.16 Y77.50
X85.27 Y77.13
X85.35 Y76.76
X85.41 Y76.39
X85.46 Y76.01
X85.49 Y75.63
X85.50 Y75.25
X85.49 Y74.87
X85.46 Y74.49
X85.41 Y74.11
X85.35 Y73.74
X85.27 Y73.37
X85.16 Y73.00
X85.05 Y72.64
X84.91 Y72.28
X84.75 Y71.94
X84.58 Y71.60
X84.40 Y71.27
X84.19 Y70.95
X83.97 Y70.63
X83.74 Y70.33
X83.49 Y70.05
X83.23 Y69.77
X82.95 Y69.51
X82.67 Y69.26
X82.37 Y69.03
X82.05 Y68.81
X81.73 Y68.60
X81.40 Y68.42
X81.06 Y68.25
X80.72 Y68.09
X80.36 Y67.95
X80.00 Y67.84
X79.63 Y67.73
X79.26 Y67.65
X78.89 Y67.59
X78.51 Y67.54
X78.13 Y67.51
X77.69 Y67.50
X62.81 Y67.50
X62.83 Y69.50
X62.47 Y69.51
X62.19 Y69.53
X61.91 Y69.56
X61.63 Y69.61
X61.35 Y69.67
X61.08 Y69.75
X60.81 Y69.84
X60.55 Y69.94
X60.29 Y70.05
X60.04 Y70.18
X59.79 Y70.32
X59.56 Y70.47
X59.33 Y70.63
X59.10 Y70.81
X58.89 Y70.99
X58.69 Y71.19
X58.49 Y71.39
X58.31 Y71.60
X58.13 Y71.83
X57.97 Y72.06
X57.82 Y72.29
X57.68 Y72.54
X57.55 Y72.79
X57.44 Y73.05
X57.34 Y73.31
X57.25 Y73.58
X57.17 Y73.85
X57.11 Y74.13
X57.06 Y74.41
X57.03 Y74.69
X57.01 Y74.97
X57.00 Y75.25
X57.01 Y75.53
X57.03 Y75.81
X57.06 Y76.09
X57.11 Y76.37
X57.17 Y76.65
X57.25 Y76.92
X57.34 Y77.19
X57.44 Y77.45
X57.55 Y77.71
X57.68 Y77.96
X57.82 Y78.21
X57.97 Y78.44
X58.13 Y78.67
X58.31 Y78.90
X58.49 Y79.11
X58.69 Y79.31
X58.89 Y79.51
X59.10 Y79.69
X59.33 Y79.87
X59.56 Y80.03
X59.79 Y80.18
X60.04 Y80.32
X60.29 Y80.45
X60.55 Y80.56
X60.81 Y80.66
X61.08 Y80.75
X61.35 Y80.83
X61.63 Y80.89
X61.91 Y80.94
X62.19 Y80.97
X62.39 Y80.99
X77.67 Y81.00
X78.03 Y80.99
X78.31 Y80.97
X78.59 Y80.94
X78.87 Y80.89
X79.15 Y80.83
X79.42 Y80.75
X79.69 Y80.66
X79.95 Y80.56
X80.21 Y80.45
X80.46 Y80.32
X80.71 Y80.18
X80.94 Y80.03
X81.17 Y79.87
X81.40 Y79.69
X81.61 Y79.51
X81.81 Y79.31
X82.01 Y79.11
X82.19 Y78.90
X82.37 Y78.67
X82.53 Y78.44
X82.68 Y78.21
X82.82 Y77.96
X82.95 Y77.71
X83.06 Y77.45
X83.16 Y77.19
X83.25 Y76.92
X83.33 Y76.65
X83.39 Y76.37
X83.44 Y76.09
X83.47 Y75.81
X83.49 Y75.53
X83.50 Y75.25
X83.49 Y74.97
X83.47 Y74.69
X83.44 Y74.41
X83.39 Y74.13
X83.33 Y73.85
X83.25 Y73.58
X83.16 Y73.31
X83.06 Y73.05
X82.95 Y72.79
X82.82 Y72.54
X82.68 Y72.29
X82.53 Y72.06
X82.37 Y71.83
X82.19 Y71.60
X82.01 Y71.39
X81.81 Y71.19
X81.61 Y70.99
X81.40 Y70.81
X81.17 Y70.63
X80.94 Y70.47
X80.71 Y70.32
X80.46 Y70.18
X80.21 Y70.05
X79.95 Y69.94
X79.69 Y69.84
X79.42 Y69.75
X79.15 Y69.67
X78.87 Y69.61
X78.59 Y69.56
X78.31 Y69.53
X78.03 Y69.51
X77.67 Y69.50
X62.83 Y69.50
X62.85 Y71.50
X62.57 Y71.51
X62.38 Y71.52
X62.20 Y71.54
X62.02 Y71.57
X61.84 Y71.61
X61.66 Y71.66
X61.49 Y71.72
X61.32 Y71.79
X61.15 Y71.86
X60.98 Y71.95
X60.82 Y72.04
X60.67 Y72.13
X60.52 Y72.24
X60.37 Y72.35
X60.23 Y72.47
X60.10 Y72.60
X59.97 Y72.73
X59.85 Y72.87
X59.74 Y73.02
X59.63 Y73.17
X59.54 Y73.32
X59.45 Y73.48
X59.36 Y73.65
X59.29 Y73.82
X59.22 Y73.99
X59.16 Y74.16
X59.11 Y74.34
X59.07 Y74.52
X59.04 Y74.70
X59.02 Y74.88
X59.01 Y75.07
X59.00 Y75.25
X59.01 Y75.43
X59.02 Y75.62
X59.04 Y75.80
X59.07 Y75.98
X59.11 Y76.16
X59.16 Y76.34
X59.22 Y76.51
X59.29 Y76.68
X59.36 Y76.85
X59.45 Y77.02
X59.54 Y77.18
X59.63 Y77.33
X59.74 Y77.48
X59.85 Y77.63
X59.97 Y77.77
X60.10 Y77.90
X60.23 Y78.03
X60.37 Y78.15
X60.52 Y78.26
X60.67 Y78.37
X60.82 Y78.46
X60.98 Y78.55
X61.15 Y78.64
X61.32 Y78.71
X61.49 Y78.78
X61.66 Y78.84
X61.84 Y78.89
X62.02 Y78.93
X62.20 Y78.96
X62.38 Y78.98
X62.47 Y78.99
X77.65 Y79.00
X77.93 Y78.99
X78.12 Y78.98
X78.30 Y78.96
X78.48 Y78.93
X78.66 Y78.89
X78.84 Y78.84
X79.01 Y78.78
X79.18 Y78.71
X79.35 Y78.64
X79.52 Y78.55
X79.68 Y78.46
X79.83 Y78.37
X79.98 Y78.26
X80.13 Y78.15
X80.27 Y78.03
X80.40 Y77.90
X80.53 Y77.77
X80.65 Y77.63
X80.76 Y77.48
X80.87 Y77.33
X80.96 Y77.18
X81.05 Y77.02
X81.14 Y76.85
X81.21 Y76.68
X81.28 Y76.51
X81.34 Y76.34
X81.39 Y76.16
X81.43 Y75.98
X81.46 Y75.80
X81.48 Y75.62
X81.49 Y75.43
X81.50 Y75.25
X81.49 Y75.07
X81.48 Y74.88
X81.46 Y74.70
X81.43 Y74.52
X81.39 Y74.34
X81.34 Y74.16
X81.28 Y73.99
X81.21 Y73.82
X81.14 Y73.65
X81.05 Y73.48
X80.96 Y73.32
X80.87 Y73.17
X80.76 Y73.02
X80.65 Y72.87
X80.53 Y72.73
X80.40 Y72.60
X80.27 Y72.47
X80.13 Y72.35
X79.98 Y72.24
X79.83 Y72.13
X79.68 Y72.04
X79.52 Y71.95
X79.35 Y71.86
X79.18 Y71.79
X79.01 Y71.72
X78.84 Y71.66
X78.66 Y71.61
X78.48 Y71.57
X78.30 Y71.54
X78.12 Y71.52
X77.93 Y71.51
X77.65 Y71.50
X62.85 Y71.50
X62.56 Y76.99
X77.63 Y77.00
X77.84 Y76.99
X77.92 Y76.99
X78.01 Y76.98
X78.09 Y76.96
X78.17 Y76.94
X78.26 Y76.92
X78.34 Y76.89
X78.42 Y76.86
X78.50 Y76.83
X78.57 Y76.79
X78.65 Y76.75
X78.72 Y76.70
X78.79 Y76.65
X78.86 Y76.60
X78.92 Y76.54
X78.99 Y76.49
X79.04 Y76.42
X79.10 Y76.36
X79.15 Y76.29
X79.20 Y76.22
X79.25 Y76.15
X79.29 Y76.07
X79.33 Y76.00
X79.36 Y75.92
X79.39 Y75.84
X79.42 Y75.76
X79.44 Y75.67
X79.46 Y75.59
X79.48 Y75.51
X79.49 Y75.42
X79.49 Y75.34
X79.50 Y75.25
X79.49 Y75.16
X79.49 Y75.08
X79.48 Y74.99
X79.46 Y74.91
X79.44 Y74.83
X79.42 Y74.74
X79.39 Y74.66
X79.36 Y74.58
X79.33 Y74.50
X79.29 Y74.43
X79.25 Y74.35
X79.20 Y74.28
X79.15 Y74.21
X79.10 Y74.14
X79.04 Y74.08
X78.99 Y74.01
X78.92 Y73.96
X78.86 Y73.90
X78.79 Y73.85
X78.72 Y73.80
X78.65 Y73.75
X78.57 Y73.71
X78.50 Y73.67
X78.42 Y73.64
X78.34 Y73.61
X78.26 Y73.58
X78.17 Y73.56
X78.09 Y73.54
X78.01 Y73.52
X77.92 Y73.51
X77.84 Y73.51
X77.62 Y73.50
X62.88 Y73.50
X62.66 Y73.51
X62.58 Y73.51
X62.49 Y73.52
X62.41 Y73.54
X62.33 Y73.56
X62.24 Y73.58
X62.16 Y73.61
X62.08 Y73.64
X62.00 Y73.67
X61.93 Y73.71
X61.85 Y73.75
X61.78 Y73.80
X61.71 Y73.85
X61.64 Y73.90
X61.58 Y73.96
X61.51 Y74.01
X61.46 Y74.08
X61.40 Y74.14
X61.35 Y74.21
X61.30 Y74.28
X61.25 Y74.35
X61.21 Y74.43
X61.17 Y74.50
X61.14 Y74.58
X61.11 Y74.66
X61.08 Y74.74
X61.06 Y74.83
X61.04 Y74.91
X61.02 Y74.99
X61.01 Y75.08
X61.01 Y75.16
X61.00 Y75.25
X61.01 Y75.34
X61.01 Y75.42
X61.02 Y75.51
X61.04 Y75.59
X61.06 Y75.67
X61.08 Y75.76
X61.11 Y75.84
X61.14 Y75.92
X61.17 Y76.00
X61.21 Y76.07
X61.25 Y76.15
X61.30 Y76.22
X61.35 Y76.29
X61.40 Y76.36
X61.46 Y76.42
X61.51 Y76.49
X61.58 Y76.54
X61.64 Y76.60
X61.71 Y76.65
X61.78 Y76.70
X61.85 Y76.75
X61.93 Y76.79
X62.00 Y76.83
X62.08 Y76.86
X62.16 Y76.89
X62.24 Y76.92
X62.33 Y76.94
X62.41 Y76.96
X62.49 Y76.98
X62.56 Y76.99
G00 Z15.00   ; Retract to safe Z
G00 X72.75 Y75.25   ; Rapid move
G01 Z5.00 F2000
G01 X70.25 Y75.25
X67.75 Y75.25
X70.25 Y75.25
X70.25 Y77.75
X70.25 Y72.75
X72.75 Y75.25
X72.75 Y75.25
G03 X70.25 Y77.75 I-2.50 J0.00
G03 X67.75 Y75.25 I0.00 J-2.50
G03 X70.25 Y72.75 I2.50 J0.00
G03 X72.75 Y75.25 I0.00 J2.50

; Shape ID=3, Type=Circle
; Name: Circle
; Operation: Profile
; Center: (133.500, 119.000), Radius: 19.500mm
; Cut depth: 8.000mm, Step down: 1.000mm
G00 Z15.00   ; Retract to safe Z
G00 X153.00 Y119.00   ; Rapid move
G01 Z9.00 F2000
G03 X133.50 Y138.50 I-19.50 J0.00 F2000
G03 X114.00 Y119.00 I0.00 J-19.50
G03 X133.50 Y99.50 I19.50 J0.00
G03 X153.00 Y119.00 I0.00 J19.50
G00 Z15.00   ; Retract to safe Z
G00 X153.00 Y119.00   ; Rapid move
G01 Z8.00 F2000
G03 X133.50 Y138.50 I-19.50 J0.00 F2000
G03 X114.00 Y119.00 I0.00 J-19.50
G03 X133.50 Y99.50 I19.50 J0.00
G03 X153.00 Y119.00 I0.00 J19.50
G00 Z15.00   ; Retract to safe Z
G00 X153.00 Y119.00   ; Rapid move
G01 Z7.00 F2000
G03 X133.50 Y138.50 I-19.50 J0.00 F2000
G03 X114.00 Y119.00 I0.00 J-19.50
G03 X133.50 Y99.50 I19.50 J0.00
G03 X153.00 Y119.00 I0.00 J19.50
G00 Z15.00   ; Retract to safe Z
G00 X153.00 Y119.00   ; Rapid move
G01 Z6.00 F2000
G03 X133.50 Y138.50 I-19.50 J0.00 F2000
G03 X114.00 Y119.00 I0.00 J-19.50
G03 X133.50 Y99.50 I19.50 J0.00
G03 X153.00 Y119.00 I0.00 J19.50
G00 Z15.00   ; Retract to safe Z
G00 X153.00 Y119.00   ; Rapid move
G01 Z5.00 F2000
G03 X133.50 Y138.50 I-19.50 J0.00 F2000
G03 X114.00 Y119.00 I0.00 J-19.50
G03 X133.50 Y99.50 I19.50 J0.00
G03 X153.00 Y119.00 I0.00 J19.50
G00 Z15.00   ; Retract to safe Z
G00 X153.00 Y119.00   ; Rapid move
G01 Z4.00 F2000
G03 X133.50 Y138.50 I-19.50 J0.00 F2000
G03 X114.00 Y119.00 I0.00 J-19.50
G03 X133.50 Y99.50 I19.50 J0.00
G03 X153.00 Y119.00 I0.00 J19.50
G00 Z15.00   ; Retract to safe Z
G00 X153.00 Y119.00   ; Rapid move
G01 Z3.00 F2000
G03 X133.50 Y138.50 I-19.50 J0.00 F2000
G03 X114.00 Y119.00 I0.00 J-19.50
G03 X133.50 Y99.50 I19.50 J0.00
G03 X153.00 Y119.00 I0.00 J19.50
G00 Z15.00   ; Retract to safe Z
G00 X153.00 Y119.00   ; Rapid move
G01 Z2.00 F2000
G03 X133.50 Y138.50 I-19.50 J0.00 F2000
G03 X114.00 Y119.00 I0.00 J-19.50
G03 X133.50 Y99.50 I19.50 J0.00
G03 X153.00 Y119.00 I0.00 J19.50

G00 Z15.00   ; Raise tool to safe height
G00 X0 Y0   ; Return to origin
M30         ; End program
